;Programme;Acronym;Project.Partner;Lead.Partner;Street;Postal.code;Town;Country;Website;Department;Legal.Status;Country.Code;NUTS1;NUTS2;NUTS3;Location;lon;lat
1;2007 - 2013 Baltic Sea Region;BGLC;Region of Västerbotten;Yes;Box 443;90109;Umevägen;Sweden;http://eu.baltic.net/Project_Database.5308.html?;NA;NA;SE Sweden / SVERIGE;SE3  / NORRA SVERIGE;SE33  / Övre Norrland;SE331  / Västerbottens län;box 443, 90109 umevägen, sweden;63.828866;20.263361
2;2007 - 2013 Interreg IVC;CLIMACTREGIONS;Regional Council Rhone-Alpes;Yes;Direction de l'Environnement et de l'Energie (D2E) - 78 route de Paris, BP 19;69751;Charbonnières les Bains ;France;http://www.interreg4c.eu/;NA;NA;FR France / FRANCE;FR7  / CENTRE-EST;FR71  / Rhône-Alpes;FR716  / Rhône;direction de l'environnement et de l'energie (d2e) - 78 route de paris, bp 19, 69751 charbonnières les bains cedex, france;45.779346;4.742156
3;2007 - 2013 Interreg IVC;ECREIN+;Regional Council of Rhone-Alpes;Yes;Direction de l'Environnement et de l'Energie (D2E) - 78 route de Paris - BP 19;69751;Charbonnière les Bains ;France;http://www.interreg4c.eu/;NA;NA;FR France / FRANCE;FR7  / CENTRE-EST;FR71  / Rhône-Alpes;FR716  / Rhône;direction de l'environnement et de l'energie (d2e) - 78 route de paris - bp 19, 69751 charbonnière les bains cedex, france;45.009466;3.776946
4;2007 - 2013 Interreg IVC;OSEPA;CENTRAL UNION OF MUNICIPALITIES AND COMUNITIES OF GREECE;Yes;8 GENADIOU ST. & AKADIMIAS ST.;10678;ATHENS;Greece;http://www.interreg4c.eu/;NA;NA;EL Greece / <U+0395><U+039B><U+039B><U+0391><U+0394><U+0391> (ELLADA);EL3  / ATTIK<U+0397> (ATTIKI);EL30  / Att<U+03B9><U+03BA><U+03AE> (Attiki);EL303  / <U+039A>e<U+03BD>t<U+03C1><U+03B9><U+03BA><U+03CC><U+03C2> <U+03A4><U+03BF>µ<U+03AD>a<U+03C2> <U+0391><U+03B8><U+03B7><U+03BD><U+03CE><U+03BD> (Kentrikos Tomeas Athinon);8 genadiou st. & akadimias st., 10678 athens, greece;37.988579;23.728541
5;2007 - 2013 North Sea Region;LNS;Association of Rivers Trusts;Yes;Drygrange Steading, By Melrose, Roxburghshire;TD6 9DJ;Melrose;United Kingdom;http://archive.northsearegion.eu/ivb/home/;NA;NA;UK United Kingdom / UNITED KINGDOM;UKM  / SCOTLAND;UKM2  / Eastern Scotland;UKM24  / Scottish Borders;drygrange steading, by melrose, roxburghshire, td6 9dj melrose, united kingdom;55.596785;-2.717004
6;2007 - 2013 North Sea Region;e-CME;WORLD MARITIME UNIVERSITY;Yes;;S-20124;Malmo;Sweden;http://www.northsearegion.eu/;NA;NA;SE Sweden / SVERIGE;SE2  / SÖDRA SVERIGE;SE22  / Sydsverige;SE224  / Skåne län;, s-20124 malmo, sweden;55.59438;13.029953
7;2007 - 2013 Northern Periphery;NPNP;Piteå Municipality, Department of Culture and Leisure;Yes;;94185;Pite;Sweden;http://www.northernperiphery.eu/en/projects/show/&tid=68;NA;NA;SE Sweden / SVERIGE;SE3  / NORRA SVERIGE;SE33  / Övre Norrland;SE332  / Norrbottens län;, 94185 pite, sweden;65.859144;19.017205
8;2007 - 2013 Spain - France - Andorra (ES-FR-AD);TECCAS;ECOLE NATIONALE D INGENIEURS (ENI);Yes;"47 avenue d<U+0092>Azereix;";65016;Tarbes;France;http://www.poctefa.eu/;NA;NA;FR France / FRANCE;FR6  / SUD-OUEST;FR62  / Midi-Pyrénées;FR626  / Hautes-Pyrénées;"47 avenue d<U+0092>azereix;, 65016 tarbes, france";43.234675;0.069354
9;2007 - 2013 Spain - France - Andorra (ES-FR-AD);DYNAFOREST;UNION COMMUNES FORESTIERES DU GRAND SUD;Yes;Hôtel Lassus <U+0096> 6 rue du Barry;31210;MONTREJEAU;France;http://www.poctefa.eu/;NA;NA;FR France / FRANCE;FR6  / SUD-OUEST;FR62  / Midi-Pyrénées;FR623  / Haute-Garonne;hôtel lassus <U+0096> 6 rue du barry, 31210 montrejeau, france;43.143628;0.552787
10;2007 - 2013 Spain - External Borders (ES);NAUCAM;Universidad de Las Palmas de Gran Canaria (ULPGC);Yes;Campus de Tafira, Edif. CCEE, D-3.16;35017;Las Palmas de Gran Canaria;Spain;https://www.poctefa.eu/programa/poctefa-2007-2013/;NA;NA;ES Spain / ESPAÑA;ES7  / CANARIAS;ES70  / Canarias;ES705  / Gran Canaria;campus de tafira, edif. ccee, d-3.16, 35017 las palmas de gran canaria, spain;28.115784;-15.439151
11;2007 - 2013 Programme MED;AGROCHEPACK;Municipality of Nigrita;Yes;2 Iroon str.;62200;Negritis;Greece;http://www.programmemed.eu/index.php?id=5175&L=1;NA;NA;EL Greece / <U+0395><U+039B><U+039B><U+0391><U+0394><U+0391> (ELLADA);EL5  / <U+0392><U+039F><U+03A1><U+0395><U+0399><U+0391> <U+0395><U+039B><U+039B><U+0391><U+0394><U+0391> (VOREIA ELLADA);EL52  / <U+039A>e<U+03BD>t<U+03C1><U+03B9><U+03BA><U+03AE> <U+039C>a<U+03BA>ed<U+03BF><U+03BD><U+03AF>a (Kentriki Makedonia);EL526  / S<U+03AD><U+03C1><U+03C1>e<U+03C2> (Serres);2 iroon str., 62200 negritis, greece;39.78331;21.708535
12;2007 - 2013 France - Switzerland (FR-CH);Schéma des mobilités de l'Arc jurassien;Conseil régional de Franche-Comté;Yes;Direction des transports,  4 square Castan;25031;Besançon;France;http://www.interreg-francesuisse.org/les-realisations/3412,liste-des-beneficiaires.html;NA;NA;FR France / FRANCE;FR8  / MÉDITERRANÉE;FR81  / Languedoc-Roussillon;FR813  / Hérault;direction des transports,  4 square castan, 25031 besançon, france;47.246152;6.012901
13;2007 - 2013 France - Switzerland (FR-CH);Pont de Biaufond;Conseil général du Doubs;Yes;Direction des routes et des infrastructures  7, avenue de la Gare d’Eau;25031;Besan;France;http://www.interreg-francesuisse.org/les-realisations/3412,liste-des-beneficiaires.html;NA;NA;FR France / FRANCE;FR8  / MÉDITERRANÉE;FR81  / Languedoc-Roussillon;FR813  / Hérault;direction des routes et des infrastructures  7, avenue de la gare d’eau, 25031 besan, france;46.698481;2.549047
14;2007 - 2013 France - Switzerland (FR-CH);Ligne ferroviaire St Gervais - Vallorcine;Réseau Ferré de France;Yes;Direction Régionale Rhône-Alpes - Auvergne,  78 rue de la Villette;69425;Lyon ;France;http://www.interreg-francesuisse.org/les-realisations/3412,liste-des-beneficiaires.html;NA;NA;FR France / FRANCE;FR7  / CENTRE-EST;FR71  / Rhône-Alpes;FR716  / Rhône;direction régionale rhône-alpes - auvergne,  78 rue de la villette, 69425 lyon cedex 03, france;45.752181;4.840823
15;2007 - 2013 Hungary-Slovakia-Romania-Ukraine ENPI CBC;HUSKROUA/0901/057;Non-Governmental Organisation “Chaslovtsi Chicherho Chayok”;Yes;Bercheni str., 28;2144-11-10;Chaslovtsy;Ukraine;http://www.huskroua-cbc.net/;NA;NA;UA  / Ukraine;NA;NA;NA;bercheni str., 28, 2144-11-10 chaslovtsy, ukraine;49.219469;33.023452
16;2007 - 2013 Hungary-Slovakia-Romania-Ukraine ENPI CBC;HUSKROUA/0901/106;Municipality of Jánosi;Yes;Shevchenko str. 41.;2147-01-17;Jánosi;Ukraine;http://www.ccimm.ro/;NA;NA;UA  / Ukraine;NA;NA;NA;shevchenko str. 41., 2147-01-17 jánosi, ukraine;48.249723;22.625774
17;2007 - 2013 Hungary-Slovakia-Romania-Ukraine ENPI CBC;HUSKROUA/1101/057;Transcarpathian Regional Non-governmental Organization „Ukrainian-Hungarian Regional Development Centre”;Yes;Lehotskoho str., 60/42;2140-12-06;Uzhhorod;Ukraine;http://ftvktvf.zoldhatosag.hu/;NA;NA;UA  / Ukraine;NA;NA;NA;lehotskoho str., 60/42, 2140-12-06 uzhhorod, ukraine;48.618025;22.300147
18;2007 - 2013 Romania-Ukraine-Moldova ENPI CBC;Cross-border cooperation for a life without drugs;Solidarity and Hope Foundation;Yes;Costache Negri street, No. 48;General;Iasi;Romania;http://www.ro-ua-md.net;NA;NA;RO Romania / ROMÂNIA;RO2  / MACROREGIUNEA DOI;RO21  / Nord-Est;RO213  / Iasi;costache negri street, no. 48, general iasi, romania;47.261265;27.338288
19;2007 - 2013 France (Channel) - England (FR-UK);AQUAMANCHE;University of Brighton;Yes;University of Brighton  School of Environment & Technology  Cockcroft Building  Lewes Road;BN2 4GJ;Brighton;United Kingdom;https://interreg5a-fce.eu/;NA;NA;UK United Kingdom / UNITED KINGDOM;UKJ  / SOUTH EAST (ENGLAND);UKJ2  / Surrey, East and West Sussex;UKJ21  / Brighton and Hove;university of brighton  school of environment & technology  cockcroft building  lewes road, bn2 4gj brighton, united kingdom;50.830346;-0.169974
20;2007 - 2013 France (Channel) - England (FR-UK);DEAL;Conseil Général des Côtes D'Armor;Yes;Direction de l'Agriculture et des Espaces Ruraux et Naturels (DAERN) , 2 rue Jean Kuster - BP 2375;22023;Saint Brieuc;France;http://interreg4a-manche.eu;NA;NA;FR France / FRANCE;FR5  / OUEST;FR52  / Bretagne;FR521  / Côtes-d'Armor;direction de l'agriculture et des espaces ruraux et naturels (daern) , 2 rue jean kuster - bp 2375, 22023 saint brieuc, france;48.508263;-2.761387
21;2007 - 2013 Black Sea Basin ENPI CBC;ECO-SATELLITE;Decentralized Administration of Macedonia and Thrace, Greece;Yes;11 Rossidi & Economidi;BG 546 55;Thessaloniki;Greece;http://www.blacksea-cbc.net/;NA;NA;EL Greece / <U+0395><U+039B><U+039B><U+0391><U+0394><U+0391> (ELLADA);EL5  / <U+0392><U+039F><U+03A1><U+0395><U+0399><U+0391> <U+0395><U+039B><U+039B><U+0391><U+0394><U+0391> (VOREIA ELLADA);EL52  / <U+039A>e<U+03BD>t<U+03C1><U+03B9><U+03BA><U+03AE> <U+039C>a<U+03BA>ed<U+03BF><U+03BD><U+03AF>a (Kentriki Makedonia);EL522  / Tessa<U+03BB><U+03BF><U+03BD><U+03AF><U+03BA><U+03B7> (Thessaloniki);11 rossidi & economidi, bg 546 55 thessaloniki, greece;40.656485;22.937343
22;2007 - 2013 South-East Finland-Russia ENPI CBC;St.Petersburg-Savonlinna Ballet Days;Non-profit Partnership “Dance Open Festival”;Yes;10 Zhukovsky street;191014;St.Petersburg;Russia;http://www.danceopen.com/en/;NA;NA;RU  / Russia;NA;NA;NA;10 zhukovsky street, 191014 st.petersburg, russia;59.911039;30.340232
23;2007 - 2013 Lithuania-Poland-Russia ENPI CBC;ILPR.02.02.00-96-007/10-00;Municipal educational institution, Educational secondary school No 31;Yes;Proletarskaya 66-A;236040;Kaliningrad;Russia;http://kursklgd.do.am/;NA;NA;RU  / Russia;NA;NA;NA;proletarskaya 66-a, 236040 kaliningrad, russia;54.787637;21.265133
24;2007 - 2013 Hungary - Romania (HU-RO);HURO bus edu;SALUS Oktatási és Egészségügyi Szolgáltató Nonprofit Kft;Yes;Bakay N. u. 48;6724;Szeged;Hungary;http://www.huro-cbc.eu/;NA;NA;HU Hungary / MAGYARORSZÁG;HU3  / ALFÖLD ÉS ÉSZAK;HU33  / Dél-Alföld;HU333  / Csongrád;bakay n. u. 48, 6724 szeged, hungary;46.256116;20.141016
25;2007 - 2013 Hungary - Romania (HU-RO);Cherechiu - Kokad;Comuna Cherechiu;Yes;Comuna Cherechiu nr. 78.;417175;Cherechiu;Romania;http://www.huro-cbc.eu/;NA;NA;RO Romania / ROMÂNIA;RO1  / MACROREGIUNEA UNU;RO11  / Nord-Vest;RO111  / Bihor;comuna cherechiu nr. 78., 417175 cherechiu, romania;45.727469;24.984652
26;2007 - 2013 EUREGIO Meuse-Rhine (NL-BE-DE);EDUTAINMENT;Continuim;Yes;Postbus 164;NL-6460 AD;Gène;Netherlands;http://www.interregemr.eu/;NA;NA;NL Netherlands / NEDERLAND;NL4  / ZUID-NEDERLAND;NL42  / Limburg (NL);NL423  / Zuid-Limburg;postbus 164, nl-6460 ad gène, netherlands;52.554205;5.501896
27;2007 - 2013 EUREGIO Meuse-Rhine (NL-BE-DE);EU-PREVENT;GGD Noord- en Midden Limburg;Yes;Postbus 1150;NL-5900 BD;Ton;Netherlands;http://www.euprevent.eu;NA;NA;NL Netherlands / NEDERLAND;NL3  / WEST-NEDERLAND;NL32  / Noord-Holland;NL327  / Het Gooi en Vechtstreek;postbus 1150, nl-5900 bd ton, netherlands;52.554205;5.501896
28;2007 - 2013 Greece - Cyprus (EL-CY);<U+03A0><U+03A1><U+039F>S<U+039A><U+03A0>;Hellenic Company for Multiple Sclerosis;Yes;<U+03A0>a<U+03BD>. <U+03A7>a<U+03C1>a<U+03BB>aµp<U+03AC><U+03BA><U+03B7> 3 & <U+039A><U+03BF><U+03C1>. <U+039A><U+03C9><U+03BD>sta<U+03BD>t<U+03B9><U+03BA><U+03AC><U+03BA><U+03B7>, <U+0391><U+03B3>. <U+0399><U+03C9><U+03AC><U+03BD><U+03BD><U+03B7><U+03C2> - <U+039A>a<U+03BB>aµa<U+03C1><U+03B9><U+03AC>;55132;Tes/<U+03BD><U+03AF><U+03BA><U+03B7>;Greece;http://www.greece-cyprus.eu/;NA;NA;EL Greece / <U+0395><U+039B><U+039B><U+0391><U+0394><U+0391> (ELLADA);EL5  / <U+0392><U+039F><U+03A1><U+0395><U+0399><U+0391> <U+0395><U+039B><U+039B><U+0391><U+0394><U+0391> (VOREIA ELLADA);EL53  / <U+0394><U+03C5>t<U+03B9><U+03BA><U+03AE> <U+039C>a<U+03BA>ed<U+03BF><U+03BD><U+03AF>a (Dytiki Makedonia);EL533  / F<U+03BB><U+03CE><U+03C1><U+03B9><U+03BD>a (Florina);pa<U+03BD>. <U+03C7>a<U+03C1>a<U+03BB>aµp<U+03AC><U+03BA><U+03B7> 3 & <U+03BA><U+03BF><U+03C1>. <U+03BA><U+03C9><U+03BD>sta<U+03BD>t<U+03B9><U+03BA><U+03AC><U+03BA><U+03B7>, a<U+03B3>. <U+03B9><U+03C9><U+03AC><U+03BD><U+03BD><U+03B7><U+03C2> - <U+03BA>a<U+03BB>aµa<U+03C1><U+03B9><U+03AC>, 55132 <U+03B8>es/<U+03BD><U+03AF><U+03BA><U+03B7>, greece;39.78331;21.708535
29;2007 - 2013 France - Wallonia - Flanders (BE-FR);ARRIVEE;Mairie de Roubaix;Yes;Direction du projet de Cohésion Sociale CS70737 - BP 737;59066;ROUBAIX;France;http://www.interreg-fwvl.eu/fr/;NA;NA;FR France / FRANCE;FR3  / NORD - PAS-DE-CALAIS;FR30  / Nord - Pas-de-Calais;FR301  / Nord;direction du projet de cohésion sociale cs70737 - bp 737, 59066 roubaix, france;50.689335;3.182393
30;2000 - 2006 Interreg IIIC North;LOF;Centre for Ecological Engineering;Yes;Tuglase 1-6;51014;Tartu;Estonia;http://www.interreg3c.net/web/north_en;NA;NA;EE Estonia / EESTI;EE0  / EESTI;EE00  / Eesti;EE008  / Lõuna-Eesti;tuglase 1-6, 51014 tartu, estonia;58.372941;26.738843
31;2000 - 2006 Interreg IIIC East;TranSUrban;VOLOS MUNICIPAL ENTERPRISE FOR URBAN STUDIES CONSTRUCTION AND DEVELOPMENT;Yes;Lachana 5 & Limnou Street;38334;Volos;Greece;http://www.interreg4c.eu/about-interreg-iiic/;NA;NA;EL Greece / <U+0395><U+039B><U+039B><U+0391><U+0394><U+0391> (ELLADA);EL6  / <U+039A><U+0395><U+039D><U+03A4><U+03A1><U+0399><U+039A><U+0397> <U+0395><U+039B><U+039B><U+0391><U+0394><U+0391> (KENTRIKI ELLADA);EL61  / Tessa<U+03BB><U+03AF>a (Thessalia);EL613  / <U+039C>a<U+03B3><U+03BD><U+03B7>s<U+03AF>a, Sp<U+03BF><U+03C1><U+03AC>de<U+03C2> (Magnisia, Sporades),;lachana 5 & limnou street, 38334 volos, greece;39.368361;22.946424
32;2000 - 2006 Interreg IIIC South;MedWet-Reseau CODDE;MedWet-Zones Humides Mediteraneennes Ramsar;Yes;Lambraki 1 & Kifissias;145 61;Kiffissia;Greece;http://www.interreg3c.net/web/south_fr;NA;NA;EL Greece / <U+0395><U+039B><U+039B><U+0391><U+0394><U+0391> (ELLADA);EL3  / ATTIK<U+0397> (ATTIKI);EL30  / Att<U+03B9><U+03BA><U+03AE> (Attiki);EL301  / <U+0392><U+03CC><U+03C1>e<U+03B9><U+03BF><U+03C2> <U+03A4><U+03BF>µ<U+03AD>a<U+03C2> <U+0391><U+03B8><U+03B7><U+03BD><U+03CE><U+03BD> (Voreios Tomeas Athinon);lambraki 1 & kifissias, 145 61 kiffissia, greece;39.78331;21.708535
33;2000 - 2006 Interreg IIIC South;NOÉ;Conseil Régional Provence-Alpes-Côte d'Azur;Yes;Direction de la Culture - 27 place Jules Guesde;13481;MARSEILLE ;France;http://www.interreg3c.net/web/south_fr;NA;NA;FR France / FRANCE;FR8  / MÉDITERRANÉE;FR82  / Provence-Alpes-Côte d'Azur;FR824  / Bouches-du-Rhône;direction de la culture - 27 place jules guesde, 13481 marseille cedex 20, france;43.295314;5.401581
34;2000 - 2006 Interreg IIIC South;RUP-PLUS;Direction Générale d'Affaires Economiques avec l'UE du Gouvernement des Canaries;Yes;calle Muelle de los Vapores s/n;35071;Las Palmas de Gran Canaria;Spain;http://www.interreg3c.net/web/south_fr;NA;NA;ES Spain / ESPAÑA;ES7  / CANARIAS;ES70  / Canarias;ES705  / Gran Canaria;calle muelle de los vapores s/n, 35071 las palmas de gran canaria, spain;28.115784;-15.439151
35;2000 - 2006 Archimed;MOBILAB;Aerosol and Particle Technology Laboratory/ Chemical Process Engineering Research Institute/ Centre for Research and Technology Hellas (APTL/CERTH/CPERI);Yes;;1142;Hellas;Greece;NA;NA;NA;EL Greece / <U+0395><U+039B><U+039B><U+0391><U+0394><U+0391> (ELLADA);EL3  / ATTIK<U+0397> (ATTIKI);EL30  / Att<U+03B9><U+03BA><U+03AE> (Attiki);EL307  / <U+03A0>e<U+03B9><U+03C1>a<U+03B9><U+03AC><U+03C2>, <U+039D><U+03AE>s<U+03BF><U+03B9> (Peiraias, Nisoi),;, 1142 hellas, greece;39.78331;21.708535
36;2000 - 2006 Nord (FI-SE-NO-RU);Developing king crab base farming in Varde and Liinahamari;Contrace AS;Yes;;23 9951;Vard;Norway;NA;NA;NA;NO Norway / NORGE;NO0  / NORGE;NO02  / Hedmark og Oppland;NO022  / Oppland;, 23 9951 vard, norway;61.356908;9.680372
37;2000 - 2006 Alpenrhein - Bodensee - Hochrhein (AT-DE-CH-LI);Uferrenaturierung Bodensee;Arbeitsgruppe Bodenseeufer ARBU e.V.;Yes;HerosA<U+0083>Â© Str. 18;78467;Konstanz;Germany;NA;NA;NA;DE Germany / DEUTSCHLAND;DE1  / BADEN-WÜRTTEMBERG;DE13  / Freiburg;DE138  / Konstanz;herosa<U+0083>â© str. 18, 78467 konstanz, germany;47.673531;9.170081
38;2000 - 2006 Caribbean;CESAR;Université des Antilles Guyane, Campus de Fouillole;Yes;;97157;Pointe-à -Pitre;Guadeloupe;NA;NA;NA;FR France / FRANCE;FRA  / DÉPARTEMENTS D'OUTRE-MER;FRA1  / Guadeloupe;FRA10  / Guadeloupe;, 97157 pointe-à -pitre, guadeloupe;16.23333;-61.51667
39;2000 - 2006 Caribbean;Interco Northern Islands;EDF Archipel Guadeloupe;Yes;;97153;Pointe-à -Pitre;Guadeloupe;NA;NA;NA;FR France / FRANCE;FRA  / DÉPARTEMENTS D'OUTRE-MER;FRA1  / Guadeloupe;FRA10  / Guadeloupe;, 97153 pointe-à -pitre, guadeloupe;16.23333;-61.51667
40;2000 - 2006 Slovakia - Czech Republic (SK-CZ);Využití obnovitelných zdroju energie ve školských budovách mesta Vsetín;Mesto Vsetín;Yes;;75524;Vset;Czech Republic;NA;NA;NA;CZ Czech Republic / CESKÁ REPUBLIKA;CZ0  / CESKÁ REPUBLIKA;CZ01  / Praha;CZ010  / Hlavní mesto Praha;, 75524 vset, czech republic;49.88233;15.377705
41;2000 - 2006 Czech Republic - Poland (CZ-PL);Tradice a soucasnost v kulture cesko-polského pohranicí;Obec Hat;Yes;;74 716;Hat;Czech Republic;http://www.interreg3a.cz/;NA;NA;CZ Czech Republic / CESKÁ REPUBLIKA;CZ0  / CESKÁ REPUBLIKA;CZ06  / Jihovýchod;CZ064  / Jihomoravský kraj;, 74 716 hat, czech republic;49.945145;18.260679
42;2000 - 2006 Gibraltar - Morocco (UK-MA);GIMACOL;Department of Trade and Industry (DTI);Yes;;NA;Gibraltar;United Kingdom;NA;NA;NA;UK United Kingdom / UNITED KINGDOM;UKF  / EAST MIDLANDS (ENGLAND);UKF3  / Lincolnshire;UKF30  / Lincolnshire;, na gibraltar, united kingdom;52.418788;-1.247349
43;2000 - 2006 Gibraltar - Morocco (UK-MA);"GIBMANATUR
";Gibraltar Ornithological & Natural History Society (GONHS);Yes;;NA;Gibraltar;United Kingdom;NA;NA;NA;UK United Kingdom / UNITED KINGDOM;UKF  / EAST MIDLANDS (ENGLAND);UKF3  / Lincolnshire;UKF30  / Lincolnshire;, na gibraltar, united kingdom;52.418788;-1.247349
44;2000 - 2006 Poland - Ukraine - Belarus (PL-UA-BY);Lato wodnych ludzi” Brzesc – Zeszczynka – Gorodok 2007;Parafia Rzymskokatolicka pod wezwaniem Podwyzszenia Krzyza w Zeszczynce;Yes;;NA;Zeszczync;Poland;NA;NA;NA;PL Poland / POLSKA;PL3  / REGION WSCHODNI;PL31  / Lubelskie;PL311  / Bialski;, na zeszczync, poland;51.899304;20.388926
45;2000 - 2006 Mecklenburg Vorpommern - Poland (DE-PL);Radwanderweg Saal - Neuendorf;Gemeinde Saal Amt Barth Land;Yes;Neue Str. 8;18317;Saal;Germany;http://www.pomerania.net/main.cfm?l=de&rubrik=5&th=15;NA;NA;DE Germany / DEUTSCHLAND;DE8  / MECKLENBURG-VORPOMMERN;DE80  / Mecklenburg-Vorpommern;DE80L  / Vorpommern-Rügen;neue str. 8, 18317 saal, germany;50.31582;10.358924
46;2000 - 2006 Greece - Albania (EL-AL);Cultural route: Central Zagori-Argyrokastro (Libohove);Ministry of the National Economy, Interreg Department, Head of Unit B2;Yes;78Î‘, Louizis Riankour str.;115 24;Athens;Greece;NA;NA;NA;EL Greece / <U+0395><U+039B><U+039B><U+0391><U+0394><U+0391> (ELLADA);EL3  / ATTIK<U+0397> (ATTIKI);EL30  / Att<U+03B9><U+03BA><U+03AE> (Attiki);EL303  / <U+039A>e<U+03BD>t<U+03C1><U+03B9><U+03BA><U+03CC><U+03C2> <U+03A4><U+03BF>µ<U+03AD>a<U+03C2> <U+0391><U+03B8><U+03B7><U+03BD><U+03CE><U+03BD> (Kentrikos Tomeas Athinon);78î‘, louizis riankour str., 115 24 athens, greece;37.988579;23.728541
47;2014 - 2020 INTERREG V-A Romania - Bulgaria;J<U+0415>STCULT;District <U+0410>dministr<U+0430>ti<U+043E>n Silistr<U+0430>;No;D<U+043E>br<U+043E>udzh<U+0430>;7500;Silistr<U+0430>;Bulgaria;http://www.interregrobg.eu/en/;NA;public;BG Bulgaria / <U+0411><U+042A><U+041B><U+0413><U+0410><U+0420><U+0418><U+042F> (BULGARIA);BG3  / <U+0421><U+0415><U+0412><U+0415><U+0420><U+041D><U+0410> <U+0418> <U+042E><U+0413><U+041E><U+0418><U+0417><U+0422><U+041E><U+0427><U+041D><U+0410> <U+0411><U+042A><U+041B><U+0413><U+0410><U+0420><U+0418><U+042F> (SEVERNA I YUGOIZTOCHNA BULGARIA);BG32  / <U+0421><U+0435><U+0432><U+0435><U+0440><U+0435><U+043D> <U+0446><U+0435><U+043D><U+0442><U+0440><U+0430><U+043B><U+0435><U+043D> (Severen tsentralen);BG325  / <U+0421><U+0438><U+043B><U+0438><U+0441><U+0442><U+0440><U+0430> (Silistra);d<U+043E>br<U+043E>udzh<U+0430>, 7500 silistr<U+0430>, bulgaria;44.115140;27.266535
48;2014 - 2020 INTERREG VB Northern Periphery and Arctic;SAINT;Icelandic Tourism Research Centre;No;Borgum v/ Nordurslod;600;Akureyri;Iceland;http://www.saintproject.eu;Akureyri office;public;IS Iceland / ÍSLAND;IS0  / ÍSLAND;IS00  / Ísland;IS002  / Landsbyggð;borgum v/ nordurslod, 600 akureyri, iceland;65.682965;-18.10199
49;2014 - 2020 INTERREG VB Northern Periphery and Arctic;Nearly Zero Energy Project;Faroese earth and Energy Directorate;No;Brekkutún , fo-100;NA;Tórshavn;Faroe Islands;http://www.interreg-npa.eu;NA;public;FO  / Faroe Islands;NA;NA;NA;brekkutún , fo-100, na tórshavn, faroe islands;62.021448;-6.775829
50;2007 - 2013 Central Europe;I3SME;TechnoCenter at University of Maribor;No;;1000;Vzhodna Slovenija;Slovenia;http://www.central2013.eu/;NA;NA;SI Slovenia / SLOVENIJA;SI0  / SLOVENIJA;SI03  / Vzhodna Slovenija;SI032  / Podravska;, 1000 vzhodna slovenija, slovenia;46.068735;14.932759
51;2007 - 2013 Alpine Space;GeoMol;Republic and Canton of Geneva, Department of Security;No;;NA;Les Acacias;Switzerland;http://geomol.eu/;NA;NA;CH Switzerland / SCHWEIZ/SUISSE/SVIZZERA;CH0  / SCHWEIZ/SUISSE/SVIZZERA;CH01  / Région lémanique;CH013  / Genève;, na les acacias, switzerland;46.190529;6.138025
52;2007 - 2013 Alpine Space;START_it_up;Irstea, Grenoble regional center, Snow avalanche engineering and torrent control research unit;No;;NA;Avalanches;France;http://www.alpine-space.eu/;NA;NA;FR France / FRANCE;FR7  / CENTRE-EST;FR71  / Rhône-Alpes;FR711  / Ain;, na avalanches, france;46.698481;2.549047
53;2007 - 2013 Atlantic Area;KNOWCITIES;Coventry City Council;No;West Orchard House floor 1, 28-34 Corporation Street;CV11GF;Coventry;United Kingdom;http://atlanticprojects.ccdr-n.pt/project-area/knowcities;NA;NA;UK United Kingdom / UNITED KINGDOM;UKG  / WEST MIDLANDS (ENGLAND);UKG3  / West Midlands;UKG33  / Coventry;west orchard house floor 1, 28-34 corporation street, cv11gf coventry, united kingdom;52.416786;-1.521578
54;2007 - 2013 Atlantic Area;MAIA;UDC - UNIVERSIDAD DA CORUÑA;No;Facultad de Ciencias - C/ Alejandro de la Sota 1;15008;A Coruña;Spain;http://atlanticprojects.ccdr-n.pt/project-area/knowcities;NA;NA;ES Spain / ESPAÑA;ES1  / NOROESTE;ES11  / Galicia;ES111  / A Coruña;facultad de ciencias - c/ alejandro de la sota 1, 15008 a coruña, spain;43.036706;-8.531503
55;2007 - 2013 Baltic Sea Region;EfficienSea;Swedish Maritime Administration;No;Ostra Promenaden 7;60178;Norrköping;Sweden;http://www.efficiensea.org;NA;NA;SE Sweden / SVERIGE;SE1  / ÖSTRA SVERIGE;SE12  / Östra Mellansverige;SE123  / Östergötlands län;ostra promenaden 7, 60178 norrköping, sweden;58.592978;16.165555
56;2007 - 2013 Baltic Sea Region;CleanShip;Environmental Development Association (EDA);No;Brivibas street 249A;1014;Riga;Latvia;http://www.clean-baltic-sea-shipping.com/;NA;NA;LV Latvia / LATVIJA;LV0  / LATVIJA;LV00  / Latvija;LV006  / Riga;brivibas street 249a, 1014 riga, latvia;56.971149;24.142749
57;2007 - 2013 Baltic Sea Region;Eco-Region;City of Tallinn;No;Vabaduse Square 7;15198;Tallinn;Estonia;http://www.baltic-ecoregion.eu;NA;NA;EE Estonia / EESTI;EE0  / EESTI;EE00  / Eesti;EE001  / Põhja-Eesti;vabaduse square 7, 15198 tallinn, estonia;59.401347;24.693912
58;2007 - 2013 Baltic Sea Region;RBGC;City of Tallinn;No;Vabaduse Square 7;15198;Tallinn;Estonia;http://www.rbgc.eu/frontpage.html;NA;NA;EE Estonia / EESTI;EE0  / EESTI;EE00  / Eesti;EE001  / Põhja-Eesti;vabaduse square 7, 15198 tallinn, estonia;59.401347;24.693912
59;2007 - 2013 Baltic Sea Region;Longlife;Housing and Urban Development Agency;No;SVITRIGAILOS G.7/ A.VIVULSKIO 16;3100;Vilnius;Lithuania;http://www.longlife-world.eu;NA;NA;LT Lithuania / LIETUVA;LT0  / LIETUVA;LT00  / Lietuva;LT00A  / Vilniaus apskritis;svitrigailos g.7/ a.vivulskio 16, 3100 vilnius, lithuania;54.700902;25.251531
60;2007 - 2013 North West Europe;INLANAV;Schipco bv;No;Maarssenbroeksedijk 17 unit C (visiting address) - Postbus 1625, 3600 BP Maarssen (postal address);3542 DL;Utrecht;Netherlands;http://www.nweurope.eu/about-the-programme/previous-results/;NA;NA;NL Netherlands / NEDERLAND;NL3  / WEST-NEDERLAND;NL31  / Utrecht;NL310  / Utrecht;maarssenbroeksedijk 17 unit c (visiting address) - postbus 1625, 3600 bp maarssen (postal address), 3542 dl utrecht, netherlands;52.072602;5.181058
61;2007 - 2013 North West Europe;ECOLOGISTICS;Logistics in Wallonia (LiW);No;Complexe Arrobas - Parc Artisanal, 11-13;4671;Blegny-Barchon;Belgium;http://www.ecologistics-project.eu;NA;NA;BE Belgium / BELGIQUE-BELGIË;BE3  / RÉGION WALLONNE;BE33  / Prov. Liège;BE332  / Arr. Liège;complexe arrobas - parc artisanal, 11-13, 4671 blegny-barchon, belgium;50.673538;5.724023
62;2007 - 2013 North West Europe;WEASTFLOWS;Universität Duisburg-Essen;No;Wirtschaftsgeographie, insbes. Verkehr&  Logistik;D-45117;Essen;Germany;http://www.nweurope.eu/about-the-programme/previous-results/;NA;NA;DE Germany / DEUTSCHLAND;DEA  / NORDRHEIN-WESTFALEN;DEA1  / Düsseldorf;DEA13  / Essen, Kreisfreie Stadt;wirtschaftsgeographie, insbes. verkehr&  logistik, d-45117 essen, germany;51.468739;7.019603
63;2007 - 2013 North West Europe;RECAP;Leuven.Inc (Leuven Innovation Networking Circle) (dropped out February 2013);No;p/a Innovatie&Incubatiecentrum, Kapeldreef 60;B- 3001;Heverlee;Belgium;http://www.nweurope.eu/;NA;NA;BE Belgium / BELGIQUE-BELGIË;BE2  / VLAAMS GEWEST;BE24  / Prov. Vlaams-Brabant;BE242  / Arr. Leuven;p/a innovatie&incubatiecentrum, kapeldreef 60, b- 3001 heverlee, belgium;50.780688;4.792712
64;2007 - 2013 North West Europe;C-Change;Ministère de l’Intérieur et de l’Aménagement du Territoire;No;Direction de l’Aménagement du Territoire, 1 Rue du Plébiscite;L-2341;Luxembourg;Luxembourg;http://www.nweurope.eu/;NA;NA;LU Luxembourg / LUXEMBOURG;LU0  / LUXEMBOURG;LU00  / Luxembourg;LU000  / Luxembourg;direction de l’aménagement du territoire, 1 rue du plébiscite, l-2341 luxembourg, luxembourg;49.609085;6.059322
65;2007 - 2013 Interreg IVC;CivPro;Evros Prefecture;No;KARAOLI & DIMITRIOY 40;68100;ALEXANDROYPOLIS;Greece;http://www.interreg4c.eu/;NA;NA;EL Greece / <U+0395><U+039B><U+039B><U+0391><U+0394><U+0391> (ELLADA);EL5  / <U+0392><U+039F><U+03A1><U+0395><U+0399><U+0391> <U+0395><U+039B><U+039B><U+0391><U+0394><U+0391> (VOREIA ELLADA);EL51  / A<U+03BD>at<U+03BF><U+03BB><U+03B9><U+03BA><U+03AE> <U+039C>a<U+03BA>ed<U+03BF><U+03BD><U+03AF>a, T<U+03C1><U+03AC><U+03BA><U+03B7> (Anatoliki Makedonia, Thraki),;EL511  / <U+0388>ß<U+03C1><U+03BF><U+03C2> (Evros);karaoli & dimitrioy 40, 68100 alexandroypolis, greece;40.850553;25.875483
66;2007 - 2013 Interreg IVC;DLA;Regional Development Agency of North Hungary Non-profit Corporation (NORDA);No;Széchenyi u. 107.;3525;Miskolc;Hungary;http://www.interreg4c.eu/;NA;NA;HU Hungary / MAGYARORSZÁG;HU3  / ALFÖLD ÉS ÉSZAK;HU31  / Észak-Magyarország;HU311  / Borsod-Abaúj-Zemplén;széchenyi u. 107., 3525 miskolc, hungary;48.106487;20.796365
67;2007 - 2013 Interreg IVC;eCitizen II;Patras Municipal Enterprise for Planning and Development S.A.;No;El. Venizelou 38 & Solomou;26333;Patras;Greece;http://www.interreg4c.eu/;NA;NA;EL Greece / <U+0395><U+039B><U+039B><U+0391><U+0394><U+0391> (ELLADA);EL6  / <U+039A><U+0395><U+039D><U+03A4><U+03A1><U+0399><U+039A><U+0397> <U+0395><U+039B><U+039B><U+0391><U+0394><U+0391> (KENTRIKI ELLADA);EL63  / <U+0394><U+03C5>t<U+03B9><U+03BA><U+03AE> <U+0395><U+03BB><U+03BB><U+03AC>da (Dytiki Ellada);EL632  / <U+0391><U+03C7>a<U+0390>a (Achaia);el. venizelou 38 & solomou, 26333 patras, greece;38.237639;21.736168
68;2007 - 2013 Interreg IVC;EnercitEE;Haute-Savoie local authorities;No;Direction de l'Aménagement, de l'Environnement et du Développement RuralConseil général de la Haute-Savoie1 avenue d’Albigny BP2444;74 041;ANNECY ;France;http://www.interreg4c.eu/;NA;NA;FR France / FRANCE;FR7  / CENTRE-EST;FR71  / Rhône-Alpes;FR718  / Haute-Savoie;direction de l'aménagement, de l'environnement et du développement ruralconseil général de la haute-savoie1 avenue d’albigny bp2444, 74 041 annecy cedex, france;45.906143;6.125034
69;2007 - 2013 Interreg IVC;IES;Ilfov County Council;No;18 Street Gh. Manu, sector 1, Bucharest;10446;Bucharest;Romania;http://www.interreg4c.eu/;NA;NA;RO Romania / ROMÂNIA;RO3  / MACROREGIUNEA TREI;RO32  / Bucuresti - Ilfov;RO321  / Bucuresti;18 street gh. manu, sector 1, bucharest, 10446 bucharest, romania;44.435842;26.085733
70;2007 - 2013 Interreg IVC;MMOVE;Volos Municipal Enterprise for Urban Studies, Construction and Development (DEMEKAV);No;LACHANA 5 & LIMNOU STREET;38334;VOLOS;Greece;http://www.interreg4c.eu/;NA;NA;EL Greece / <U+0395><U+039B><U+039B><U+0391><U+0394><U+0391> (ELLADA);EL6  / <U+039A><U+0395><U+039D><U+03A4><U+03A1><U+0399><U+039A><U+0397> <U+0395><U+039B><U+039B><U+0391><U+0394><U+0391> (KENTRIKI ELLADA);EL61  / Tessa<U+03BB><U+03AF>a (Thessalia);EL613  / <U+039C>a<U+03B3><U+03BD><U+03B7>s<U+03AF>a, Sp<U+03BF><U+03C1><U+03AC>de<U+03C2> (Magnisia, Sporades),;lachana 5 & limnou street, 38334 volos, greece;39.368361;22.946424
71;2007 - 2013 Interreg IVC;PIMMS CAPITAL;Veneto Region - Community Programme Department;No;Fond.ta S. Lucia – Cannaregio 23;30121;Venice;Italy;http://www.interreg4c.eu/;NA;NA;IT Italy / ITALIA;ITH  / NORD-EST;ITH3  / Veneto;ITH35  / Venezia;fond.ta s. lucia – cannaregio 23, 30121 venice, italy;45.581192;12.561157
72;2007 - 2013 Interreg IVC;PIMMS CAPITAL;Patras Municipal Enterprise for Planning & Development S.A.;No;El. Venizelou 38 & Solomou;26333;Patras;Greece;http://www.interreg4c.eu/;NA;NA;EL Greece / <U+0395><U+039B><U+039B><U+0391><U+0394><U+0391> (ELLADA);EL6  / <U+039A><U+0395><U+039D><U+03A4><U+03A1><U+0399><U+039A><U+0397> <U+0395><U+039B><U+039B><U+0391><U+0394><U+0391> (KENTRIKI ELLADA);EL63  / <U+0394><U+03C5>t<U+03B9><U+03BA><U+03AE> <U+0395><U+03BB><U+03BB><U+03AC>da (Dytiki Ellada);EL632  / <U+0391><U+03C7>a<U+0390>a (Achaia);el. venizelou 38 & solomou, 26333 patras, greece;38.237639;21.736168
73;2007 - 2013 Interreg IVC;PLUS;Municipal Enterprise for Planning and Development of Patras S.A. (ADEP S.A.);No;El. Venizelou 38 & Solomou;26333;Patras;Greece;http://www.interreg4c.eu/;NA;NA;EL Greece / <U+0395><U+039B><U+039B><U+0391><U+0394><U+0391> (ELLADA);EL6  / <U+039A><U+0395><U+039D><U+03A4><U+03A1><U+0399><U+039A><U+0397> <U+0395><U+039B><U+039B><U+0391><U+0394><U+0391> (KENTRIKI ELLADA);EL63  / <U+0394><U+03C5>t<U+03B9><U+03BA><U+03AE> <U+0395><U+03BB><U+03BB><U+03AC>da (Dytiki Ellada);EL632  / <U+0391><U+03C7>a<U+0390>a (Achaia);el. venizelou 38 & solomou, 26333 patras, greece;38.237639;21.736168
74;2007 - 2013 Interreg IVC;Pre-waste;Public Cooperation Department of Ilfov County;No;18 Street Gh. Manu, sector 1, Bucharest;10446;Bucharest;Romania;http://www.interreg4c.eu/;NA;NA;RO Romania / ROMÂNIA;RO3  / MACROREGIUNEA TREI;RO32  / Bucuresti - Ilfov;RO321  / Bucuresti;18 street gh. manu, sector 1, bucharest, 10446 bucharest, romania;44.435842;26.085733
75;2007 - 2013 North Sea Region;ACCSEAS;Norwegian Coastal Administration;No;Postboks 1502;N-6025;NA;Norway;http://www.northsearegion.eu/ivb/projects/;NA;NA;NO Norway / NORGE;NO0  / NORGE;NO03  / Sør-Østlandet;NO032  / Buskerud;postboks 1502, n-6025 na, norway;61.356908;9.680372
76;2007 - 2013 South East Europe;CLEAR;Municipal enterprise for planning & development S.A;No;EL.VENIZELOU & SOLOMOU STR 38;26333;Patras;Greece;http://www.southeast-europe.net/hu/;NA;NA;EL Greece / <U+0395><U+039B><U+039B><U+0391><U+0394><U+0391> (ELLADA);EL6  / <U+039A><U+0395><U+039D><U+03A4><U+03A1><U+0399><U+039A><U+0397> <U+0395><U+039B><U+039B><U+0391><U+0394><U+0391> (KENTRIKI ELLADA);EL63  / <U+0394><U+03C5>t<U+03B9><U+03BA><U+03AE> <U+0395><U+03BB><U+03BB><U+03AC>da (Dytiki Ellada);EL632  / <U+0391><U+03C7>a<U+0390>a (Achaia);el.venizelou & solomou str 38, 26333 patras, greece;38.237639;21.736168
77;2007 - 2013 South East Europe;SUSTCULT;Municipality of Berat;No;Bulevardi Republika N/A;5001-5006;Berat;Albania;http://www.sustcult.eu;NA;NA;AL  / Albania;NA;NA;NA;bulevardi republika n/a, 5001-5006 berat, albania;40.63967;20.091828
78;2007 - 2013 South East Europe;CC-WARE;Decentralised Administration of Macedonia and Thrace, Water Directorate of Central Macedonia;No;11 Rossidi & Economidi Str.;54008;Thessaloniki;Greece;http://www.ccware.eu;NA;NA;EL Greece / <U+0395><U+039B><U+039B><U+0391><U+0394><U+0391> (ELLADA);EL5  / <U+0392><U+039F><U+03A1><U+0395><U+0399><U+0391> <U+0395><U+039B><U+039B><U+0391><U+0394><U+0391> (VOREIA ELLADA);EL52  / <U+039A>e<U+03BD>t<U+03C1><U+03B9><U+03BA><U+03AE> <U+039C>a<U+03BA>ed<U+03BF><U+03BD><U+03AF>a (Kentriki Makedonia);EL522  / Tessa<U+03BB><U+03BF><U+03BD><U+03AF><U+03BA><U+03B7> (Thessaloniki);11 rossidi & economidi str., 54008 thessaloniki, greece;40.656485;22.937343
79;2007 - 2013 South East Europe;JEWEL Model;Patras Municipal Enterprise for Planning and Development;No;38 El. Benizelou & Solomou Str,;26333;Patras;Greece;http://www.jewelmodel.eu;NA;NA;EL Greece / <U+0395><U+039B><U+039B><U+0391><U+0394><U+0391> (ELLADA);EL6  / <U+039A><U+0395><U+039D><U+03A4><U+03A1><U+0399><U+039A><U+0397> <U+0395><U+039B><U+039B><U+0391><U+0394><U+0391> (KENTRIKI ELLADA);EL63  / <U+0394><U+03C5>t<U+03B9><U+03BA><U+03AE> <U+0395><U+03BB><U+03BB><U+03AC>da (Dytiki Ellada);EL632  / <U+0391><U+03C7>a<U+0390>a (Achaia);38 el. benizelou & solomou str,, 26333 patras, greece;38.237639;21.736168
80;2007 - 2013 South East Europe;JEWEL Model;EQREM ÇABEJ UNIVERSITY OF GJIROKASTRA;No;"""18 Lagja """"18 shtatori"""", Rruga Studenti""";6001;GJIROKASTRA;Albania;http://www.jewelmodel.eu;NA;NA;AL  / Albania;NA;NA;NA;"""18 lagja """"18 shtatori"""", rruga studenti"", 6001 gjirokastra, albania";40.076648;20.143604
81;2007 - 2013 South East Europe;SIVA;Youth Entrepreneurial Service Foundation;No;bb Arhimedova;1001;Skopje;Former Yugoslav Republic Of Macedonia;http://www.southeast-europe.net/hu/;NA;NA;MK the former Yugoslav Republic of Macedonia (FYROM) / PORANEŠNA JUGOSLOVENSKA REPUBLIKA MAKEDONIJA;MK0  / PORANEŠNA JUGOSLOVENSKA REPUBLIKA MAKEDONIJA;MK00  / Poranešna jugoslovenska Republika Makedonija;MK008  / Skopski;bb arhimedova, 1001 skopje, former yugoslav republic of macedonia;42;21.41667
82;2007 - 2013 South East Europe;STATUS;Municipality of Drama;No;0 Bermiou 2 & 1st Iouliou;66100;Drama;Greece;http://www.seecityplatform.net;NA;NA;EL Greece / <U+0395><U+039B><U+039B><U+0391><U+0394><U+0391> (ELLADA);EL5  / <U+0392><U+039F><U+03A1><U+0395><U+0399><U+0391> <U+0395><U+039B><U+039B><U+0391><U+0394><U+0391> (VOREIA ELLADA);EL51  / A<U+03BD>at<U+03BF><U+03BB><U+03B9><U+03BA><U+03AE> <U+039C>a<U+03BA>ed<U+03BF><U+03BD><U+03AF>a, T<U+03C1><U+03AC><U+03BA><U+03B7> (Anatoliki Makedonia, Thraki),;EL514  / <U+0394><U+03C1><U+03AC>µa (Drama);0 bermiou 2 & 1st iouliou, 66100 drama, greece;41.150452;24.152498
83;2007 - 2013 South West Europe;ECOARQ;UCCIMAC;No;Parc Technologique La Pardieu 2, Avenue Léonard de Vinci;63063;Clermont-Ferrand;France;http://4.interreg-sudoe.eu/ESP/f/138/Los-Proyectos-SUDOE/Los-proyectos-aprobados;NA;NA;FR France / FRANCE;FR7  / CENTRE-EST;FR72  / Auvergne;FR724  / Puy-de-Dôme;parc technologique la pardieu 2, avenue léonard de vinci, 63063 clermont-ferrand, cedex 1, france;45.784832;3.114432
